IRIDIUM 112             
1 41925U 17003J   24248.75140317  .00001363  00000+0  47951-3 0  9991
2 41925  86.4027   0.1137 0002438  88.2864 271.8611 14.34227665400049
IRIDIUM 111             
1 41926U 17003K   24248.73872567  .00001218  00000+0  42776-3 0  9998
2 41926  86.4030   0.1752 0002164  83.0966 277.0476 14.34221814400024
IRIDIUM 113             
1 42803U 17039A   24248.02100643  .00000048  00000+0  10177-4 0  9994
2 42803  86.3948 234.2243 0002355  82.8861 277.2602 14.34218464377858
IRIDIUM 123             
1 42804U 17039B   24248.55086715  .00000065  00000+0  16269-4 0  9993
2 42804  86.3909 265.5057 0002080  89.4672 270.6762 14.34217745376690
IRIDIUM 120             
1 42805U 17039C   24249.06119302  .00000026  00000+0  22506-5 0  9999
2 42805  86.3937 233.6562 0002265  89.6680 270.4775 14.34217911377996
IRIDIUM 115             
1 42806U 17039D   24249.00331962  .00000696  00000+0  20100-3 0  9991
2 42806  86.4476 233.7167 0002379  79.1744 280.9724 14.43273450380487
IRIDIUM 118             
1 42807U 17039E   24248.58257932  .00000020  00000+0  40801-7 0  9993
2 42807  86.3907 265.4935 0002279  95.7612 264.3844 14.34217180376693
IRIDIUM 117             
1 42808U 17039F   24247.48530941  .00000376  00000+0  12733-3 0  9999
2 42808  86.3909 265.9164 0002226  87.2916 272.8535 14.34220053376560
